start=new Date('2022-05-02T00:00:00.000Z').valueOf();
sats=[{"EPOCH":"2022-05-01T17:05:37.507488","CLASSIFICATION_TYPE":"U","ELEMENT_SET_NO":"999","PERIOD":"93.360","NORAD_CAT_ID":"48012","SEMIMAJOR_AXIS":"6817.104","MEAN_MOTION":"15.42420831","MEAN_ELEMENT_THEORY":"SGP4","RA_OF_ASC_NODE":"115.5493","BSTAR":"0.00060429000000","TIME_SYSTEM":"UTC","ARG_OF_PERICENTER":"338.3332","APOAPSIS":"441.583","RCS_SIZE":"LARGE","LAUNCH_DATE":"2021-03-24","PERIAPSIS":"436.355","TLE_LINE2":"2 48012  53.0547 115.5493 0003835 338.3332  21.7510 15.42420831 63211","SITE":"AFETR","EPHEMERIS_TYPE":"0","COUNTRY_CODE":"US","MEAN_MOTION_DOT":"0.00026210","DECAY_DATE":null,"TLE_LINE1":"1 48012U 21024AM  22121.71223967  .00026210  00000-0  60429-3 0  9994","REV_AT_EPOCH":"6321","ECCENTRICITY":"0.00038350","CENTER_NAME":"EARTH","OBJECT_TYPE":"PAYLOAD","MEAN_ANOMALY":"21.7510","FILE":"3424759","REF_FRAME":"TEME","MEAN_MOTION_DDOT":"0.0000000000000","OBJECT_NAME":"STARLINK-2216","INCLINATION":"53.0547","GP_ID":"202473706","OBJECT_ID":"2021-024AM"},{"LAUNCH_DATE":"2021-03-24","PERIAPSIS":"545.796","TLE_LINE2":"2 48013  53.0544 141.9532 0002092  48.1145 312.0022 15.06389867 62797","SITE":"AFETR","EPHEMERIS_TYPE":"0","COUNTRY_CODE":"US","MEAN_MOTION_DOT":"0.00001857","DECAY_DATE":null,"TLE_LINE1":"1 48013U 21024AN  22121.78534079  .00001857  00000-0  14357-3 0  9990","REV_AT_EPOCH":"6279","ECCENTRICITY":"0.00020920","CENTER_NAME":"EARTH","MEAN_ANOMALY":"312.0022","OBJECT_TYPE":"PAYLOAD","FILE":"3424759","REF_FRAME":"TEME","MEAN_MOTION_DDOT":"0.0000000000000","OBJECT_NAME":"STARLINK-2243","INCLINATION":"53.0544","GP_ID":"202472463","OBJECT_ID":"2021-024AN","EPOCH":"2022-05-01T18:50:53.444256","CLASSIFICATION_TYPE":"U","ELEMENT_SET_NO":"999","PERIOD":"95.593","NORAD_CAT_ID":"48013","SEMIMAJOR_AXIS":"6925.380","MEAN_MOTION":"15.06389867","MEAN_ELEMENT_THEORY":"SGP4","RA_OF_ASC_NODE":"141.9532","BSTAR":"0.00014357000000","ARG_OF_PERICENTER":"48.1145","TIME_SYSTEM":"UTC","APOAPSIS":"548.693","RCS_SIZE":"LARGE"},{"GP_ID":"202473214","OBJECT_ID":"2021-024AP","MEAN_MOTION_DDOT":"0.0000000000000","OBJECT_NAME":"STARLINK-2283","INCLINATION":"53.0525","FILE":"3424759","REF_FRAME":"TEME","REV_AT_EPOCH":"361","ECCENTRICITY":"0.00019810","CENTER_NAME":"EARTH","MEAN_ANOMALY":"206.3658","OBJECT_TYPE":"PAYLOAD","DECAY_DATE":null,"TLE_LINE1":"1 48014U 21024AP  22121.91668981  .00033570  00000-0  23133-2 0  9994","MEAN_MOTION_DOT":"0.00033570","PERIAPSIS":"548.408","TLE_LINE2":"2 48014  53.0525 105.8502 0001981  47.3598 206.3658 15.05562977  3612","SITE":"AFETR","EPHEMERIS_TYPE":"0","COUNTRY_CODE":"US","LAUNCH_DATE":"2021-03-24","ARG_OF_PERICENTER":"47.3598","TIME_SYSTEM":"UTC","APOAPSIS":"551.153","RCS_SIZE":"LARGE","RA_OF_ASC_NODE":"105.8502","BSTAR":"0.00231330000000","MEAN_MOTION":"15.05562977","MEAN_ELEMENT_THEORY":"SGP4","SEMIMAJOR_AXIS":"6927.915","ELEMENT_SET_NO":"999","PERIOD":"95.645","NORAD_CAT_ID":"48014","EPOCH":"2022-05-01T22:00:01.999584","CLASSIFICATION_TYPE":"U"},{"CLASSIFICATION_TYPE":"U","EPOCH":"2022-05-01T22:00:01.999584","NORAD_CAT_ID":"48016","PERIOD":"95.592","ELEMENT_SET_NO":"999","SEMIMAJOR_AXIS":"6925.350","MEAN_ELEMENT_THEORY":"SGP4","MEAN_MOTION":"15.06399384","BSTAR":"0.00023795000000","RA_OF_ASC_NODE":"91.3481","RCS_SIZE":"LARGE","APOAPSIS":"548.506","TIME_SYSTEM":"UTC","ARG_OF_PERICENTER":"47.0962","LAUNCH_DATE":"2021-03-24","COUNTRY_CODE":"US","EPHEMERIS_TYPE":"0","SITE":"AFETR","TLE_LINE2":"2 48016  53.0548  91.3481 0001863  47.0962 165.8945 15.06399384  3614","PERIAPSIS":"545.925","MEAN_MOTION_DOT":"0.00003264","TLE_LINE1":"1 48016U 21024AR  22121.91668981  .00003264  00000-0  23795-3 0  9998","DECAY_DATE":null,"MEAN_ANOMALY":"165.8945","OBJECT_TYPE":"PAYLOAD","CENTER_NAME":"EARTH","ECCENTRICITY":"0.00018630","REV_AT_EPOCH":"361","REF_FRAME":"TEME","FILE":"3424759","INCLINATION":"53.0548","OBJECT_NAME":"STARLINK-2284","MEAN_MOTION_DDOT":"0.0000000000000","OBJECT_ID":"2021-024AR","GP_ID":"202473963"},{"BSTAR":"0.00087452000000","RA_OF_ASC_NODE":"120.9315","ARG_OF_PERICENTER":"16.6568","TIME_SYSTEM":"UTC","RCS_SIZE":"LARGE","APOAPSIS":"357.216","SEMIMAJOR_AXIS":"6728.530","MEAN_ELEMENT_THEORY":"SGP4","MEAN_MOTION":"15.72977307","PERIOD":"91.546","ELEMENT_SET_NO":"999","NORAD_CAT_ID":"48017","EPOCH":"2022-05-01T09:26:37.813344","CLASSIFICATION_TYPE":"U","OBJECT_NAME":"STARLINK-2239","MEAN_MOTION_DDOT":"0.0000000000000","INCLINATION":"53.0474","GP_ID":"202447663","OBJECT_ID":"2021-024AS","ECCENTRICITY":"0.00101370","REV_AT_EPOCH":"6258","MEAN_ANOMALY":"343.4781","OBJECT_TYPE":"PAYLOAD","CENTER_NAME":"EARTH","FILE":"3424590","REF_FRAME":"TEME","MEAN_MOTION_DOT":"0.00123101","TLE_LINE1":"1 48017U 21024AS  22121.39349321  .00123101  00000-0  87452-3 0  9998","DECAY_DATE":null,"LAUNCH_DATE":"2021-03-24","SITE":"AFETR","PERIAPSIS":"343.574","TLE_LINE2":"2 48017  53.0474 120.9315 0010137  16.6568 343.4781 15.72977307 62589","COUNTRY_CODE":"US","EPHEMERIS_TYPE":"0"},{"MEAN_MOTION":"15.06392758","MEAN_ELEMENT_THEORY":"SGP4","SEMIMAJOR_AXIS":"6925.371","APOAPSIS":"548.582","RCS_SIZE":"LARGE","ARG_OF_PERICENTER":"45.5994","TIME_SYSTEM":"UTC","RA_OF_ASC_NODE":"161.8703","BSTAR":"-0.00003499200000","CLASSIFICATION_TYPE":"U","EPOCH":"2022-05-01T19:13:24.793824","NORAD_CAT_ID":"48018","ELEMENT_SET_NO":"999","PERIOD":"95.593","REF_FRAME":"TEME","FILE":"3424759","CENTER_NAME":"EARTH","MEAN_ANOMALY":"314.5154","OBJECT_TYPE":"PAYLOAD","REV_AT_EPOCH":"6257","ECCENTRICITY":"0.00019440","OBJECT_ID":"2021-024AT","GP_ID":"202472964","INCLINATION":"53.0546","MEAN_MOTION_DDOT":"0.0000000000000","OBJECT_NAME":"STARLINK-2282","COUNTRY_CODE":"US","EPHEMERIS_TYPE":"0","TLE_LINE2":"2 48018  53.0546 161.8703 0001944  45.5994 314.5154 15.06392758 62575","PERIAPSIS":"545.889","SITE":"AFETR","LAUNCH_DATE":"2021-03-24","TLE_LINE1":"1 48018U 21024AT  22121.80098141 -.00000803  00000-0 -34992-4 0  9993","DECAY_DATE":null,"MEAN_MOTION_DOT":"-0.00000803"},{"RA_OF_ASC_NODE":"153.2139","BSTAR":"0.00001816700000","APOAPSIS":"548.424","RCS_SIZE":"LARGE","ARG_OF_PERICENTER":"48.0567","TIME_SYSTEM":"UTC","SEMIMAJOR_AXIS":"6925.368","MEAN_MOTION":"15.06393505","MEAN_ELEMENT_THEORY":"SGP4","NORAD_CAT_ID":"48019","ELEMENT_SET_NO":"999","PERIOD":"95.593","CLASSIFICATION_TYPE":"U","EPOCH":"2022-05-01T12:06:10.448640","INCLINATION":"53.0530","MEAN_MOTION_DDOT":"0.0000000000000","OBJECT_NAME":"STARLINK-2285","OBJECT_ID":"2021-024AU","GP_ID":"202447656","CENTER_NAME":"EARTH","OBJECT_TYPE":"PAYLOAD","MEAN_ANOMALY":"312.0569","REV_AT_EPOCH":"6214","ECCENTRICITY":"0.00017190","REF_FRAME":"TEME","FILE":"3424590","MEAN_MOTION_DOT":"-0.00000011","TLE_LINE1":"1 48019U 21024AU  22121.50428760 -.00000011  00000-0  18167-4 0  9991","DECAY_DATE":null,"LAUNCH_DATE":"2021-03-24","COUNTRY_CODE":"US","EPHEMERIS_TYPE":"0","PERIAPSIS":"546.043","TLE_LINE2":"2 48019  53.0530 153.2139 0001719  48.0567 312.0569 15.06393505 62148","SITE":"AFETR"},{"MEAN_MOTION_DOT":"0.00039820","TLE_LINE1":"1 48020U 21024AV  22121.91668981  .00039820  00000-0  26794-2 0  9991","DECAY_DATE":null,"LAUNCH_DATE":"2021-03-24","SITE":"AFETR","PERIAPSIS":"546.096","TLE_LINE2":"2 48020  53.0542 106.3480 0001754  49.4165   1.0896 15.06368162  3615","EPHEMERIS_TYPE":"0","COUNTRY_CODE":"US","OBJECT_NAME":"STARLINK-2294","MEAN_MOTION_DDOT":"0.0000000000000","INCLINATION":"53.0542","GP_ID":"202473464","OBJECT_ID":"2021-024AV","ECCENTRICITY":"0.00017540","REV_AT_EPOCH":"361","MEAN_ANOMALY":"1.0896","OBJECT_TYPE":"PAYLOAD","CENTER_NAME":"EARTH","FILE":"3424759","REF_FRAME":"TEME","PERIOD":"95.594","ELEMENT_SET_NO":"999","NORAD_CAT_ID":"48020","EPOCH":"2022-05-01T22:00:01.999584","CLASSIFICATION_TYPE":"U","BSTAR":"0.00267940000000","RA_OF_ASC_NODE":"106.3480","TIME_SYSTEM":"UTC","ARG_OF_PERICENTER":"49.4165","RCS_SIZE":"LARGE","APOAPSIS":"548.526","SEMIMAJOR_AXIS":"6925.446","MEAN_ELEMENT_THEORY":"SGP4","MEAN_MOTION":"15.06368162"},{"MEAN_MOTION":"15.06392430","MEAN_ELEMENT_THEORY":"SGP4","SEMIMAJOR_AXIS":"6925.372","APOAPSIS":"548.705","RCS_SIZE":"LARGE","ARG_OF_PERICENTER":"47.0308","TIME_SYSTEM":"UTC","RA_OF_ASC_NODE":"112.3725","BSTAR":"-0.00001197400000","CLASSIFICATION_TYPE":"U","EPOCH":"2022-05-01T16:36:51.917184","NORAD_CAT_ID":"48021","ELEMENT_SET_NO":"999","PERIOD":"95.593","REF_FRAME":"TEME","FILE":"3424759","CENTER_NAME":"EARTH","MEAN_ANOMALY":"313.0858","OBJECT_TYPE":"PAYLOAD","REV_AT_EPOCH":"6320","ECCENTRICITY":"0.00021200","OBJECT_ID":"2021-024AW","GP_ID":"202473707","INCLINATION":"53.0547","MEAN_MOTION_DDOT":"0.0000000000000","OBJECT_NAME":"STARLINK-2301","EPHEMERIS_TYPE":"0","COUNTRY_CODE":"US","PERIAPSIS":"545.769","TLE_LINE2":"2 48021  53.0547 112.3725 0002120  47.0308 313.0858 15.06392430 63201","SITE":"AFETR","LAUNCH_DATE":"2021-03-24","DECAY_DATE":null,"TLE_LINE1":"1 48021U 21024AW  22121.69226756 -.00000460  00000-0 -11974-4 0  9993","MEAN_MOTION_DOT":"-0.00000460"},{"INCLINATION":"53.0547","OBJECT_NAME":"STARLINK-2298","MEAN_MOTION_DDOT":"0.0000000000000","OBJECT_ID":"2021-024AX","GP_ID":"202472464","OBJECT_TYPE":"PAYLOAD","MEAN_ANOMALY":"316.1995","CENTER_NAME":"EARTH","ECCENTRICITY":"0.00020440","REV_AT_EPOCH":"6243","REF_FRAME":"TEME","FILE":"3424759","MEAN_MOTION_DOT":"0.00000432","DECAY_DATE":null,"TLE_LINE1":"1 48022U 21024AX  22121.82586590  .00000432  00000-0  47925-4 0  9996","LAUNCH_DATE":"2021-03-24","COUNTRY_CODE":"US","EPHEMERIS_TYPE":"0","SITE":"AFETR","TLE_LINE2":"2 48022  53.0547 171.7701 0002044  43.9156 316.1995 15.06391211 62432","PERIAPSIS":"545.825","BSTAR":"0.00004792500000","RA_OF_ASC_NODE":"171.7701","RCS_SIZE":"LARGE","APOAPSIS":"548.656","ARG_OF_PERICENTER":"43.9156","TIME_SYSTEM":"UTC","SEMIMAJOR_AXIS":"6925.375","MEAN_ELEMENT_THEORY":"SGP4","MEAN_MOTION":"15.06391211","NORAD_CAT_ID":"48022","PERIOD":"95.593","ELEMENT_SET_NO":"999","CLASSIFICATION_TYPE":"U","EPOCH":"2022-05-01T19:49:14.813760"}];
